CCSDS_OMM_VERS = 2.0
CREATION_DATE  = 
ORIGINATOR     = 

OBJECT_NAME    = DISKSAT D
OBJECT_ID      = 2025-305D
CENTER_NAME    = EARTH
REF_FRAME      = TEME
TIME_SYSTEM    = UTC
MEAN_ELEMENT_THEORY = SGP/SGP4

EPOCH          = 2025-12-20T07:33:21.625632
MEAN_MOTION    = 15.05567005
ECCENTRICITY   = .00044772
INCLINATION    = 45.0056
RA_OF_ASC_NODE = 310.4150
ARG_OF_PERICENTER = 287.6101
MEAN_ANOMALY   = 72.4284

EPHEMERIS_TYPE = 0
CLASSIFICATION_TYPE = U
NORAD_CAT_ID   = 67222
ELEMENT_SET_NO = 999
REV_AT_EPOCH   = 31
BSTAR          = .10184381E-3
MEAN_MOTION_DOT = .1252E-4
MEAN_MOTION_DDOT = 0

CCSDS_OMM_VERS = 2.0
CREATION_DATE  = 
ORIGINATOR     = 

OBJECT_NAME    = ELECTRON KICK STAGE R/B
OBJECT_ID      = 2025-305E
CENTER_NAME    = EARTH
REF_FRAME      = TEME
TIME_SYSTEM    = UTC
MEAN_ELEMENT_THEORY = SGP/SGP4

EPOCH          = 2025-12-20T06:12:15.244992
MEAN_MOTION    = 15.47983126
ECCENTRICITY   = .01793228
INCLINATION    = 44.9975
RA_OF_ASC_NODE = 310.0187
ARG_OF_PERICENTER = 148.7450
MEAN_ANOMALY   = 212.4250

EPHEMERIS_TYPE = 0
CLASSIFICATION_TYPE = U
NORAD_CAT_ID   = 67223
ELEMENT_SET_NO = 999
REV_AT_EPOCH   = 32
BSTAR          = .1630388E-3
MEAN_MOTION_DOT = .16328E-3
MEAN_MOTION_DDOT = 0

CCSDS_OMM_VERS = 2.0
CREATION_DATE  = 
ORIGINATOR     = 

OBJECT_NAME    = ELECTRON R/B
OBJECT_ID      = 2025-305F
CENTER_NAME    = EARTH
REF_FRAME      = TEME
TIME_SYSTEM    = UTC
MEAN_ELEMENT_THEORY = SGP/SGP4

EPOCH          = 2025-12-18T18:27:13.126752
MEAN_MOTION    = 15.64663678
ECCENTRICITY   = .0262888
INCLINATION    = 45.0188
RA_OF_ASC_NODE = 318.3021
ARG_OF_PERICENTER = 280.1207
MEAN_ANOMALY   = 77.0133

EPHEMERIS_TYPE = 0
CLASSIFICATION_TYPE = U
NORAD_CAT_ID   = 67224
ELEMENT_SET_NO = 999
REV_AT_EPOCH   = 9
BSTAR          = .22935E-3
MEAN_MOTION_DOT = .172783E-2
MEAN_MOTION_DDOT = .86369E-5

